SAUDISAT 2              
1 28371U 04025F   26158.96197249  .00000319  00000+0  82276-4 0  9992
2 28371  98.5506 158.7055 0024008 327.6512  32.3212 14.56678716164406
COSMOS 2407             
1 28380U 04028A   26159.13590316  .00000067  00000+0  53120-4 0  9993
2 28380  82.9609  81.5375 0037791 278.2131 201.0889 13.76334065 98639
COSMOS 2414             
1 28521U 05002A   26159.09287948  .00000060  00000+0  37440-4 0  9992
2 28521  82.9506  50.5260 0040130 357.4444   2.6508 13.87925871 82559
INMARSAT 4-F1           
1 28628U 05009A   26158.80863963  .00000046  00000+0  00000+0 0  9993
2 28628   5.1547  42.7373 0002755  36.3105 286.3956  1.00272574 77576
SJ-7                    
1 28737U 05024A   26159.01473412  .00009117  00000+0  40786-3 0  9998
2 28737  97.7293 188.8723 0017095  67.7406 292.5640 15.21404704146631
CUBESAT XI-V            
1 28895U 05043F   26158.95798337  .00001615  00000+0  26180-3 0  9999
2 28895  98.2976 314.3867 0013088 231.5140 128.4893 14.72607812100399
HINODE (SOLAR-B)        
1 29479U 06041A   26159.05567238  .00000843  00000+0  15323-3 0  9992
2 29479  98.0547 175.3428 0016440 321.0348  38.9672 14.68610972 53537
SHIJIAN-6 02B (SJ-6 02B)
1 29506U 06046B   26159.21562365  .00001548  00000+0  12463-3 0  9997
2 29506  97.7162 188.3297 0014711  86.3603 273.9303 15.01354515 69398
DMSP 5D-3 F17 (USA 191) 
1 29522U 06050A   26159.18935538  .00000064  00000+0  55433-4 0  9999
2 29522  98.7377 165.9435 0011324  82.4895 277.7565 14.14991901 11159
LAPAN-TUBSAT            
1 29709U 07001A   26159.23102446  .00001180  00000+0  14171-3 0  9996
2 29709  98.1347 158.2536 0011171 209.5197 150.5388 14.85944228 49825
HAIYANG-1B              
1 31113U 07010A   26159.19501531  .00000102  00000+0  54652-4 0  9993
2 31113  98.3490 141.3892 0012513 224.4780 135.5400 14.31024649999347
CARTOSAT-2A             
1 32783U 08021A   26159.18516058  .00001161  00000+0  16287-3 0  9996
2 32783  97.7634 208.2009 0012673 135.1724 225.0513 14.79227452977479
CUTE-1.7+APD II (CO-65) 
1 32785U 08021C   26159.16671106  .00005482  00000+0  34706-3 0  9998
2 32785  97.8271 140.3984 0010361  65.0809 295.1495 15.09365068983838
SEEDS II (CO-66)        
1 32791U 08021J   26158.92960024  .00019726  00000+0  63151-3 0  9990
2 32791  97.7519 156.3875 0002465  31.6806 328.4582 15.32435639985878
YUBILEINY (RS30)        
1 32953U 08025A   26159.16539932 -.00000015  00000+0 -17633-3 0  9998
2 32953  82.5047   1.0532 0019249 334.1984  25.8134 12.43178714818578
FENGYUN 3A              
1 32958U 08026A   26159.09590897  .00000086  00000+0  61350-4 0  9995
2 32958  98.6881 100.0993 0009205 147.7099 212.4642 14.19569313934115
HUANJING 1A (HJ-1A)     
1 33320U 08041A   26159.19838714  .00002010  00000+0  24700-3 0  9996
2 33320  97.6686 145.3852 0019167 163.0235 197.1625 14.83969412957073
HUANJING 1B (HJ-1B)     
1 33321U 08041B   26159.23085809  .00000521  00000+0  69373-4 0  9992
2 33321  97.6522 148.6149 0035192 210.9656 148.9484 14.83301156957086
SHIJIAN-6 03A (SJ-6 03A)
1 33408U 08053A   26159.14479148  .00005403  00000+0  27594-3 0  9996
2 33408  97.8415 192.1513 0012505  49.6036 310.6285 15.17079349961598
SHIJIAN-6 03B (SJ-6 03B)
1 33409U 08053B   26159.18647329  .00001933  00000+0  14286-3 0  9997
2 33409  97.8587 178.9290 0021053  72.7447 287.6080 15.04286981961396
CHUANGXIN 1-02 (CX-1-02)
1 33434U 08056B   26159.13242168  .00000020  00000+0  24682-4 0  9993
2 33434  98.6138 185.4895 0014431 162.1263 198.0430 14.30151023917325
